NORAD_CAT_ID,OBJECT_NAME,OBJECT_TYPE,EPOCH,MEAN_MOTION,ECCENTRICITY,INCLINATION,RA_OF_ASC_NODE,ARG_OF_PERICENTER,MEAN_ANOMALY,BSTAR,MEAN_MOTION_DOT,MEAN_MOTION_DDOT,TLE_LINE0,TLE_LINE1,TLE_LINE2,SEMIMAJOR_AXIS,PERIOD,APOGEE,PERIGEE,DECAYED
54077.0,STARLINK-5171,PAYLOAD,2022-10-25 16:00:00,15.90213276,0.0031766,53.2174,123.2675,59.354,168.6098,-0.0042452,-0.01374636,0.00053636,0 STARLINK-5171,1 54077U 22136AC  22298.66667824 -.01374636  53636-3 -42452-2 0  9992,2 54077  53.2174 123.2675 0031766  59.3540 168.6098 15.90213276  1300,6679.823,90.554,322.907,280.468,0.0
54077.0,STARLINK-5171,PAYLOAD,2022-10-25 22:00:01,15.89515035,0.0028904,53.2174,122.001,61.3314,158.4316,-0.0041716999999999,-0.01293644,0.00047701,0 STARLINK-5171,1 54077U 22136AC  22298.91668981 -.01293644  47701-3 -41717-2 0  9993,2 54077  53.2174 122.0010 0028904  61.3314 158.4316 15.89515035  1308,6681.779,90.594,322.957,284.331,0.0
54077.0,STARLINK-5171,PAYLOAD,2022-10-26 06:00:00,15.88672182,0.0025465999999999,53.2174,120.3105,61.9433,265.7795,-0.0045311,-0.01334314,0.00050073,0 STARLINK-5171,1 54077U 22136AC  22299.25001157 -.01334314  50073-3 -45311-2 0  9997,2 54077  53.2174 120.3105 0025466  61.9433 265.7795 15.88672182  1390,6684.142,90.642,323.029,288.985,0.0
54077.0,STARLINK-5171,PAYLOAD,2022-10-26 14:00:01,15.87739966,0.0021845,53.2177,118.6235,62.6501,12.0941,-0.0043553,-0.01215896,0.00041914,0 STARLINK-5171,1 54077U 22136AC  22299.58334491 -.01215896  41914-3 -43553-2 0  9996,2 54077  53.2177 118.6235 0021845  62.6501  12.0941 15.87739966  1308,6686.7580000000025,90.695,323.23,294.016,0.0
54077.0,STARLINK-5171,PAYLOAD,2022-10-26 22:00:00,15.86938318,0.001844,53.2176,116.9411,61.3004,119.3652,-0.0050104,-0.01334941,0.00049323,0 STARLINK-5171,1 54077U 22136AC  22299.91667824 -.01334941  49323-3 -50104-2 0  9997,2 54077  53.2176 116.9411 0018440  61.3004 119.3652 15.86938318  1306,6689.009,90.741,323.209,298.54,0.0
54077.0,STARLINK-5171,PAYLOAD,2022-10-27 14:00:01,15.85065734,0.0010930999999999,53.2169,113.5765,66.0261,323.5485,-0.0046203999999999,-0.01001204,0.0,0 STARLINK-5171,1 54077U 22136AC  22300.58335648 -.01001204  00000-0 -46204-2 0  9994,2 54077  53.2169 113.5765 0010931  66.0261 323.5485 15.85065734  1605,6694.276999999999,90.848,323.459,308.824,0.0
54077.0,STARLINK-5171,PAYLOAD,2022-10-27 22:00:00,15.84290383,0.0007367999999999,53.2175,111.9005,65.7769,66.5016,-0.0054093,-0.01109853,0.0,0 STARLINK-5171,1 54077U 22136AC  22300.91667824 -.01109853  00000-0 -54093-2 0  9999,2 54077  53.2175 111.9005 0007368  65.7769  66.5016 15.84290383  1300,6696.4609999999975,90.892,323.26,313.392,0.0
54077.0,STARLINK-5171,PAYLOAD,2022-10-28 00:00:02,15.84139804,0.0006399,53.2172,111.4811,65.6382,182.2221,-0.0059985,-0.01230054,0.0,0 STARLINK-5171,1 54077U 22136AC  22301.00002315 -.01230054  00000-0 -59985-2 0  9991,2 54077  53.2172 111.4811 0006399  65.6382 182.2221 15.84139804  1674,6696.885,90.901,323.035,314.465,0.0
54077.0,STARLINK-5171,PAYLOAD,2022-10-28 14:00:01,15.82543935,0.0001618,53.2174,108.5492,58.3801,276.4878,-0.00585,-0.01120059,0.0,0 STARLINK-5171,1 54077U 22136AC  22301.58335648 -.01120059  00000-0 -58500-2 0  9997,2 54077  53.2174 108.5492 0001618  58.3801 276.4878 15.82543935  1308,6701.386,90.993,324.336,322.1670000000001,0.0
54077.0,STARLINK-5171,PAYLOAD,2022-10-28 22:00:01,15.81717979,0.0001327,53.2173,106.8797,50.4138,24.1255,-0.0064143999999999,-0.01174444,0.0,0 STARLINK-5171,1 54077U 22136AC  22301.91668981 -.01174444  00000-0 -64144-2 0  9991,2 54077  53.2173 106.8797 0001327  50.4138  24.1255 15.81717979  1812,6703.719,91.04,326.474,324.695,0.0
54077.0,STARLINK-5171,PAYLOAD,2022-10-29 12:00:00,15.80024272,0.0001394,53.2171,103.9571,83.8453,72.6762,-0.005503,-0.00937967,0.0,0 STARLINK-5171,1 54077U 22136AC  22302.50001157 -.00937967  00000-0 -55030-2 0  9993,2 54077  53.2171 103.9571 0001394  83.8453  72.6762 15.80024272  1303,6708.509,91.138,331.309,329.439,0.0
54077.0,STARLINK-5171,PAYLOAD,2022-10-29 22:00:01,15.79043221,9.07e-05,53.2173,101.8778,61.2208,306.1713,-0.0065852,-0.0107578,0.0,0 STARLINK-5171,1 54077U 22136AC  22302.91668981 -.01075780  00000-0 -65852-2 0  9992,2 54077  53.2173 101.8778 0000907  61.2208 306.1713 15.79043221  1302,6711.2869999999975,91.194,333.761,332.5440000000001,0.0
54077.0,STARLINK-5171,PAYLOAD,2022-10-30 00:00:00,15.7892089,0.0001163,53.2173,101.4613,62.8253,58.4356,-0.0075201,-0.0120544,0.0,0 STARLINK-5171,1 54077U 22136AC  22303.00001157 -.01205440  00000-0 -75201-2 0  9996,2 54077  53.2173 101.4613 0001163  62.8253  58.4356 15.78920890  1987,6711.634,91.202,334.279,332.718,0.0
54077.0,STARLINK-5171,PAYLOAD,2022-10-30 14:00:01,15.77265436,0.0001299,53.2172,98.5519,96.3487,100.9947,-0.0067009,-0.01016305,0.0,0 STARLINK-5171,1 54077U 22136AC  22303.58334491 -.01016305  00000-0 -67009-2 0  9996,2 54077  53.2172  98.5519 0001299  96.3487 100.9947 15.77265436  1300,6716.329000000002,91.297,339.06699999999995,337.32199999999995,0.0
54077.0,STARLINK-5171,PAYLOAD,2022-10-30 22:00:01,15.76390899,8.23e-05,53.2172,96.8947,77.42,213.4249,-0.0068776,-0.01004168,0.0,0 STARLINK-5171,1 54077U 22136AC  22303.91668981 -.01004168  00000-0 -68776-2 0  9993,2 54077  53.2172  96.8947 0000823  77.4200 213.4249 15.76390899  1307,6718.813,91.348,341.231,340.125,0.0
54077.0,STARLINK-5171,PAYLOAD,2022-10-31 14:00:01,15.74294385,0.0001324,53.2176,93.5814,81.6186,33.0808,-0.0036030999999999,-0.00500451,0.0,0 STARLINK-5171,1 54077U 22136AC  22304.58334491 -.00500451  00000-0 -36031-2 0  9997,2 54077  53.2176  93.5814 0001324  81.6186  33.0808 15.74294385  1303,6724.776999999999,91.47,347.532,345.751,0.0
54077.0,STARLINK-5171,PAYLOAD,2022-10-31 22:00:01,15.73117488,0.0001039,53.2168,91.9315,70.49600000000002,134.6778,0.0023949,0.00348595,0.0,0 STARLINK-5171,1 54077U 22136AC  22304.91668981  .00348595  00000-0  23949-2 0  9999,2 54077  53.2168  91.9315 0001039  70.4960 134.6778 15.73117488  2291,6728.13,91.538,350.694,349.296,0.0
54077.0,STARLINK-5171,PAYLOAD,2022-11-01 06:00:00,15.70867727,0.0001756,53.2178,90.2777,54.9309,240.8469,0.021965,0.03238375,0.0,0 STARLINK-5171,1 54077U 22136AC  22305.25001157  .03238375  00000-0  21965-1 0  9995,2 54077  53.2178  90.2777 0001756  54.9309 240.8469 15.70867727  2344,6734.553000000001,91.669,357.6,355.235,0.0
54077.0,STARLINK-5171,PAYLOAD,2022-11-01 14:00:01,15.73109834,0.0001769,53.2162,88.6309,49.6807,334.9999,-0.00043456,-0.00060937,0.0,0 STARLINK-5171,1 54077U 22136AC  22305.58334491 -.00060937  00000-0 -43456-3 0  9998,2 54077  53.2162  88.6309 0001769  49.6807 334.9999 15.73109834  1306,6728.151999999999,91.538,351.207,348.827,0.0
54077.0,STARLINK-5171,PAYLOAD,2022-11-01 22:00:00,15.73106012,0.000179,53.2157,86.9825,40.1514,73.3141,-0.0011635,-0.00160205,0.0,0 STARLINK-5171,1 54077U 22136AC  22305.91667824 -.00160205  00000-0 -11635-2 0  9996,2 54077  53.2157  86.9825 0001790  40.1514  73.3141 15.73106012  1307,6728.163000000001,91.539,351.232,348.824,0.0
54077.0,STARLINK-5171,PAYLOAD,2022-11-02 06:00:00,15.7297065,0.0001521999999999,53.2158,85.3313,40.5778,161.6416,-2.9241e-05,-4.68e-05,0.0,0 STARLINK-5171,1 54077U 22136AC  22306.25001157 -.00004680  00000-0 -29241-4 0  9993,2 54077  53.2158  85.3313 0001522  40.5778 161.6416 15.72970650  2507,6728.549,91.547,351.43800000000016,349.39,0.0
54077.0,STARLINK-5171,PAYLOAD,2022-11-02 14:00:01,15.72964245,0.0001865999999999,53.2162,83.6835,41.6104,249.2591,0.00039549,0.0005468999999999,0.0,0 STARLINK-5171,1 54077U 22136AC  22306.58334491  .00054690  00000-0  39549-3 0  9994,2 54077  53.2162  83.6835 0001866  41.6104 249.2591 15.72964245  1305,6728.566999999999,91.547,351.68800000000016,349.177,0.0
54077.0,STARLINK-5171,PAYLOAD,2022-11-02 22:00:00,15.73026361,0.0001929,53.2158,82.0352,34.0535,345.4411,-9.0123e-05,-0.00013155,0.0,0 STARLINK-5171,1 54077U 22136AC  22306.91667824 -.00013155  00000-0 -90123-4 0  9999,2 54077  53.2158  82.0352 0001929  34.0535 345.4411 15.73026361  2604,6728.39,91.543,351.55300000000005,348.957,0.0
54077.0,STARLINK-5171,PAYLOAD,2022-11-03 14:00:01,15.73163783,0.0001974,53.2157,78.7365,37.3552,159.5821,0.00015074,0.00020555,0.0,0 STARLINK-5171,1 54077U 22136AC  22307.58334491  .00020555  00000-0  15074-3 0  9995,2 54077  53.2157  78.7365 0001974  37.3552 159.5821 15.73163783  2704,6727.998000000001,91.535,351.19199999999995,348.535,0.0
54077.0,STARLINK-5171,PAYLOAD,2022-11-03 22:00:00,15.73180291,0.000203,53.2152,77.0873,29.6072,256.235,0.0004318,0.00060368,0.0,0 STARLINK-5171,1 54077U 22136AC  22307.91667824  .00060368  00000-0  43180-3 0  9996,2 54077  53.2152  77.0873 0002030  29.6072 256.2350 15.73180291  1300,6727.951,91.534,351.182,348.451,0.0
54077.0,STARLINK-5171,PAYLOAD,2022-11-04 06:00:00,15.73207098,0.0001818,53.2155,75.4358,30.0419,344.7378,0.00010561,0.00014231,0.0,0 STARLINK-5171,1 54077U 22136AC  22308.25001157  .00014231  00000-0  10561-3 0  9990,2 54077  53.2155  75.4358 0001818  30.0419 344.7378 15.73207098  2812,6727.875,91.533,350.963,348.517,0.0
54077.0,STARLINK-5171,PAYLOAD,2022-11-04 14:00:01,15.73209899,0.0002057,53.2159,73.7877,28.1394,75.5854,0.00033431,0.0004658,0.0,0 STARLINK-5171,1 54077U 22136AC  22308.58334491  .00046580  00000-0  33431-3 0  9999,2 54077  53.2159  73.7877 0002057  28.1394  75.5854 15.73209899  1301,6727.8669999999975,91.533,351.116,348.348,0.0
54077.0,STARLINK-5171,PAYLOAD,2022-11-04 22:00:01,15.73247178,0.0002199,53.2157,72.1384,27.6769,164.9968,-0.00099483,-0.00138267,0.0,0 STARLINK-5171,1 54077U 22136AC  22308.91668981 -.00138267  00000-0 -99483-3 0  9995,2 54077  53.2157  72.1384 0002199  27.6769 164.9968 15.73247178  2911,6727.761,91.53,351.105,348.146,0.0
54077.0,STARLINK-5171,PAYLOAD,2022-11-05 14:00:01,15.73106289,0.0002307,53.2158,68.8395,28.5172,341.8912,0.00038133,0.00053024,0.0,0 STARLINK-5171,1 54077U 22136AC  22309.58335648  .00053024  00000-0  38133-3 0  9990,2 54077  53.2158  68.8395 0002307  28.5172 341.8912 15.73106289  1309,6728.1619999999975,91.539,351.58,348.475,0.0
